{
  "type": "FeatureCollection",
  "features": [
    {
      "type": "Feature",
      "properties": {
        "norad_id": 56759,
        "name": "NVS-01 (IRNSS-1J)",
        "group": "gnss",
        "lat": 1.2596129238583182,
        "lon": -79.12982305999412,
        "alt_km": 35749.45462563411,
        "timestamp": "2025-12-24T03:53:29.891769+00:00",
        "meta_object_name": "NVS-01 (IRNSS-1J)",
        "meta_object_id": "2023-076A",
        "meta_epoch": "2025-12-23T18:53:03.733728",
        "meta_mean_motion": 1.0027185,
        "meta_eccentricity": 0.0008833,
        "meta_inclination": 2.5927,
        "meta_ra_of_asc_node": 251.2071,
        "meta_arg_of_pericenter": 16.9352,
        "meta_mean_anomaly": 237.2601,
        "meta_ephemeris_type": 0,
        "meta_classification_type": "U",
        "meta_norad_cat_id": 56759,
        "meta_element_set_no": 999,
        "meta_rev_at_epoch": 935,
        "meta_bstar": 0,
        "meta_mean_motion_dot": -3.13e-06,
        "meta_mean_motion_ddot": 0,
        "tle_line1": "1 56759U 23076A   25357.78684877 -.00000313  00000+0  00000+0 0  9993",
        "tle_line2": "2 56759   2.5927 251.2071 0008833  16.9352 237.2601  1.00271850  9357"
      },
      "geometry": {
        "type": "Point",
        "coordinates": [
          -79.12982305999412,
          1.2596129238583182
        ]
      }
    },
    {
      "type": "Feature",
      "properties": {
        "norad_id": 57517,
        "name": "COSMOS 2569 (703K)",
        "group": "gnss",
        "lat": -39.851856824695155,
        "lon": 55.87657346282778,
        "alt_km": 19110.240815678542,
        "timestamp": "2025-12-24T03:53:29.891780+00:00",
        "meta_object_name": "COSMOS 2569 (703K)",
        "meta_object_id": "2023-114A",
        "meta_epoch": "2025-12-23T06:46:12.296064",
        "meta_mean_motion": 2.13104025,
        "meta_eccentricity": 0.00108924,
        "meta_inclination": 65.1995,
        "meta_ra_of_asc_node": 78.5573,
        "meta_arg_of_pericenter": 287.0521,
        "meta_mean_anomaly": 72.876,
        "meta_ephemeris_type": 0,
        "meta_classification_type": "U",
        "meta_norad_cat_id": 57517,
        "meta_element_set_no": 999,
        "meta_rev_at_epoch": 1851,
        "meta_bstar": 0,
        "meta_mean_motion_dot": 0,
        "meta_mean_motion_ddot": 0,
        "tle_line1": "1 57517U 23114A   25357.28208676  .00000000  00000+0  00000+0 0  9995",
        "tle_line2": "2 57517  65.1995  78.5573 0010892 287.0521  72.8760  2.13104025 18515"
      },
      "geometry": {
        "type": "Point",
        "coordinates": [
          55.87657346282778,
          -39.851856824695155
        ]
      }
    },
    {
      "type": "Feature",
      "properties": {
        "norad_id": 58654,
        "name": "BEIDOU-3 M28 (C50)",
        "group": "gnss",
        "lat": -45.41996622934171,
        "lon": 24.24294961065345,
        "alt_km": 21526.292219620027,
        "timestamp": "2025-12-24T03:53:29.891792+00:00",
        "meta_object_name": "BEIDOU-3 M28 (C50)",
        "meta_object_id": "2023-207A",
        "meta_epoch": "2025-12-23T04:15:12.326400",
        "meta_mean_motion": 1.86229739,
        "meta_eccentricity": 0.00028337,
        "meta_inclination": 55.5933,
        "meta_ra_of_asc_node": 68.248,
        "meta_arg_of_pericenter": 274.486,
        "meta_mean_anomaly": 85.5342,
        "meta_ephemeris_type": 0,
        "meta_classification_type": "U",
        "meta_norad_cat_id": 58654,
        "meta_element_set_no": 999,
        "meta_rev_at_epoch": 1356,
        "meta_bstar": 0,
        "meta_mean_motion_dot": -2.8e-07,
        "meta_mean_motion_ddot": 0,
        "tle_line1": "1 58654U 23207A   25357.17722600 -.00000028  00000+0  00000+0 0  9998",
        "tle_line2": "2 58654  55.5933  68.2480 0002833 274.4860  85.5342  1.86229739 13564"
      },
      "geometry": {
        "type": "Point",
        "coordinates": [
          24.24294961065345,
          -45.41996622934171
        ]
      }
    },
    {
      "type": "Feature",
      "properties": {
        "norad_id": 58655,
        "name": "BEIDOU-3 M26 (C48)",
        "group": "gnss",
        "lat": 53.214990741826696,
        "lon": 134.47151944754847,
        "alt_km": 21533.428597633818,
        "timestamp": "2025-12-24T03:53:29.891805+00:00",
        "meta_object_name": "BEIDOU-3 M26 (C48)",
        "meta_object_id": "2023-207B",
        "meta_epoch": "2025-12-22T10:30:28.265760",
        "meta_mean_motion": 1.8623125,
        "meta_eccentricity": 0.00041674,
        "meta_inclination": 55.5947,
        "meta_ra_of_asc_node": 68.2592,
        "meta_arg_of_pericenter": 260.2185,
        "meta_mean_anomaly": 99.7849,
        "meta_ephemeris_type": 0,
        "meta_classification_type": "U",
        "meta_norad_cat_id": 58655,
        "meta_element_set_no": 999,
        "meta_rev_at_epoch": 1353,
        "meta_bstar": 0,
        "meta_mean_motion_dot": -3e-07,
        "meta_mean_motion_ddot": 0,
        "tle_line1": "1 58655U 23207B   25356.43782715 -.00000030  00000+0  00000+0 0  9993",
        "tle_line2": "2 58655  55.5947  68.2592 0004167 260.2185  99.7849  1.86231250 13536"
      },
      "geometry": {
        "type": "Point",
        "coordinates": [
          134.47151944754847,
          53.214990741826696
        ]
      }
    },
    {
      "type": "Feature",
      "properties": {
        "norad_id": 59598,
        "name": "GSAT0225 (GALILEO 29)",
        "group": "gnss",
        "lat": 54.996070726538804,
        "lon": -166.89797590879118,
        "alt_km": 23216.887855131303,
        "timestamp": "2025-12-24T03:53:29.891817+00:00",
        "meta_object_name": "GSAT0225 (GALILEO 29)",
        "meta_object_id": "2024-079A",
        "meta_epoch": "2025-12-22T20:21:50.564160",
        "meta_mean_motion": 1.70474954,
        "meta_eccentricity": 0.0002219,
        "meta_inclination": 55.0069,
        "meta_ra_of_asc_node": 106.0132,
        "meta_arg_of_pericenter": 188.6953,
        "meta_mean_anomaly": 173.4251,
        "meta_ephemeris_type": 0,
        "meta_classification_type": "U",
        "meta_norad_cat_id": 59598,
        "meta_element_set_no": 999,
        "meta_rev_at_epoch": 1031,
        "meta_bstar": 0,
        "meta_mean_motion_dot": 8e-08,
        "meta_mean_motion_ddot": 0,
        "tle_line1": "1 59598U 24079A   25356.84850190  .00000008  00000+0  00000+0 0  9990",
        "tle_line2": "2 59598  55.0069 106.0132 0002219 188.6953 173.4251  1.70474954 10319"
      },
      "geometry": {
        "type": "Point",
        "coordinates": [
          -166.89797590879118,
          54.996070726538804
        ]
      }
    },
    {
      "type": "Feature",
      "properties": {
        "norad_id": 59600,
        "name": "GSAT0227 (GALILEO 30)",
        "group": "gnss",
        "lat": -19.634846960181097,
        "lon": 91.52230360023475,
        "alt_km": 23231.34789614967,
        "timestamp": "2025-12-24T03:53:29.891828+00:00",
        "meta_object_name": "GSAT0227 (GALILEO 30)",
        "meta_object_id": "2024-079C",
        "meta_epoch": "2025-12-21T20:31:35.455872",
        "meta_mean_motion": 1.70474868,
        "meta_eccentricity": 0.00028355,
        "meta_inclination": 55.0019,
        "meta_ra_of_asc_node": 106.0394,
        "meta_arg_of_pericenter": 117.3615,
        "meta_mean_anomaly": 242.6419,
        "meta_ephemeris_type": 0,
        "meta_classification_type": "U",
        "meta_norad_cat_id": 59600,
        "meta_element_set_no": 999,
        "meta_rev_at_epoch": 1034,
        "meta_bstar": 0,
        "meta_mean_motion_dot": 4e-08,
        "meta_mean_motion_ddot": 0,
        "tle_line1": "1 59600U 24079C   25355.85527148  .00000004  00000+0  00000+0 0  9994",
        "tle_line2": "2 59600  55.0019 106.0394 0002835 117.3615 242.6419  1.70474868 10348"
      },
      "geometry": {
        "type": "Point",
        "coordinates": [
          91.52230360023475,
          -19.634846960181097
        ]
      }
    },
    {
      "type": "Feature",
      "properties": {
        "norad_id": 61182,
        "name": "GSAT0232 (GALILEO 32)",
        "group": "gnss",
        "lat": 8.018360483799079,
        "lon": 40.520119736455975,
        "alt_km": 23216.811928980434,
        "timestamp": "2025-12-24T03:53:29.891840+00:00",
        "meta_object_name": "GSAT0232 (GALILEO 32)",
        "meta_object_id": "2024-167A",
        "meta_epoch": "2025-12-22T11:14:58.318656",
        "meta_mean_motion": 1.70473576,
        "meta_eccentricity": 0.00018839,
        "meta_inclination": 55.2381,
        "meta_ra_of_asc_node": 226.1639,
        "meta_arg_of_pericenter": 204.0949,
        "meta_mean_anomaly": 6.8996,
        "meta_ephemeris_type": 0,
        "meta_classification_type": "U",
        "meta_norad_cat_id": 61182,
        "meta_element_set_no": 999,
        "meta_rev_at_epoch": 786,
        "meta_bstar": 0,
        "meta_mean_motion_dot": 7.4e-07,
        "meta_mean_motion_ddot": 0,
        "tle_line1": "1 61182U 24167A   25356.46873054  .00000074  00000+0  00000+0 0  9995",
        "tle_line2": "2 61182  55.2381 226.1639 0001883 204.0949   6.8996  1.70473576  7860"
      },
      "geometry": {
        "type": "Point",
        "coordinates": [
          40.520119736455975,
          8.018360483799079
        ]
      }
    }
  ]
}